*******************************************************************************
 Revised: June 02, 2025                 Mars                            499 / 4
 
 PHYSICAL DATA (updated 2025-Jun-02):
  Vol. mean radius (km) = 3389.92+-0.04   Density (g/cm^3)      =  3.933(5+-4)
  Mass x10^23 (kg)      =    6.4171       Flattening, f         =  1/169.779
  Volume (x10^10 km^3)  =   16.318        Equatorial radius (km)=  3396.19
  Sidereal rot. period  =   24.622962 hr  Sid. rot. rate, rad/s =  0.0000708822 
  Mean solar day (sol)  =   88775.24415 s Polar gravity m/s^2   =  3.758
  Core radius (km)      = ~1700           Equ. gravity  m/s^2   =  3.71
  Geometric Albedo      =    0.150                                              

  GM (km^3/s^2)         = 42828.375662    Mass ratio (Sun/Mars) = 3098703.59
  GM 1-sigma (km^3/s^2) = +- 0.00028      Mass of atmosphere, kg= ~ 2.5 x 10^16
  Mean temperature (K)  =  210            Atmos. pressure (bar) =    0.0056 
  Obliquity to orbit    =   25.19 deg     Max. angular diam.    =  17.9"
  Mean sidereal orb per =    1.88081578 y Visual mag. V(1,0)    =  -1.52
  Mean sidereal orb per =  686.98 d       Orbital speed,  km/s  =  24.13
  Hill's sphere rad. Rp =  319.8          Escape speed, km/s    =   5.027
                                 Perihelion  Aphelion    Mean
  Solar Constant (W/m^2)         717         493         589
  Maximum Planetary IR (W/m^2)   470         315         390
  Minimum Planetary IR (W/m^2)    30          30          30
*******************************************************************************


*******************************************************************************
Ephemeris / WWW_USER Mon Jun 16 07:24:27 2025 Pasadena, USA      / Horizons
*******************************************************************************
Target body name: Mars (499)                      {source: mar099}
Center body name: Sun (10)                        {source: DE441}
Center-site name: BODY CENTER
*******************************************************************************
Start time      : A.D. 2024-Jan-01 00:00:00.0000 TDB
Stop  time      : A.D. 2024-Mar-01 00:00:00.0000 TDB
Step-size       : 1440 minutes
*******************************************************************************
Center geodetic : 0.0, 0.0, 0.0                   {E-lon(deg),Lat(deg),Alt(km)}
Center cylindric: 0.0, 0.0, 0.0                   {E-lon(deg),Dxy(km),Dz(km)}
Center radii    : 695700.0, 695700.0, 695700.0 km {Equator_a, b, pole_c}
Keplerian GM    : 1.3271248286965425E+11 km^3/s^2
Output units    : KM-S, deg, Julian Day Number (Tp)
Calendar mode   : Mixed Julian/Gregorian
Output type     : GEOMETRIC osculating elements
Output format   : 10
Reference frame : Ecliptic of J2000.0
*******************************************************************************
            JDTDB,            Calendar Date (TDB),                     EC,                     QR,                     IN,                     OM,                      W,                     Tp,                      N,                     MA,                     TA,                      A,                     AD,                     PR,
**************************************************************************************************************************************************************************************************************************************************************************************************************************************************
$$SOE
2460310.500000000, A.D. 2024-Jan-01 00:00:00.0000,  9.329516809023837E-02,  2.066732626175091E+08,  1.847870851631760E+00,  4.949003782368899E+01,  2.866550823325932E+02,  2.460438907736752E+06,  6.065281633570611E-06,  2.927091668546372E+02,  2.824386883763085E+02,  2.279388565540124E+08,  2.492044504905157E+08,  5.935421003493768E+07,
2460311.500000000, A.D. 2024-Jan-02 00:00:00.0000,  9.329491002947242E-02,  2.066732757441610E+08,  1.847870697977308E+00,  4.949003513568410E+01,  2.866551601166736E+02,  2.460438907883297E+06,  6.065283645119733E-06,  2.932331082490836E+02,  2.829916004605746E+02,  2.279388061567836E+08,  2.492043365694061E+08,  5.935419035013545E+07,
2460312.500000000, A.D. 2024-Jan-03 00:00:00.0000,  9.329465746842842E-02,  2.066732872902416E+08,  1.847870558109495E+00,  4.949003262749629E+01,  2.866552389299492E+02,  2.460438908030505E+06,  6.065285671062387E-06,  2.937570494862268E+02,  2.835454633453563E+02,  2.279387553989682E+08,  2.492042235076948E+08,  5.935417052449286E+07,
2460313.500000000, A.D. 2024-Jan-04 00:00:00.0000,  9.329441087097957E-02,  2.066732971441275E+08,  1.847870434915323E+00,  4.949003037068849E+01,  2.866553189280222E+02,  2.460438908178688E+06,  6.065287711657829E-06,  2.942809904037711E+02,  2.841002770841813E+02,  2.279387042740715E+08,  2.492041114040154E+08,  5.935415055547315E+07,
2460314.500000000, A.D. 2024-Jan-05 00:00:00.0000,  9.329416988953693E-02,  2.066733050039849E+08,  1.847870311241769E+00,  4.949002806429110E+01,  2.866554016030557E+02,  2.460438908329717E+06,  6.065289783680835E-06,  2.948049298449504E+02,  2.846560406646123E+02,  2.279386523618207E+08,  2.492039997196565E+08,  5.935413027892086E+07,
2460315.500000000, A.D. 2024-Jan-06 00:00:00.0000,  9.329393359042858E-02,  2.066733106243692E+08,  1.847870166267586E+00,  4.949002530874974E+01,  2.866554886287608E+02,  2.460438908485657E+06,  6.065291907304664E-06,  2.953288665205268E+02,  2.852127528882416E+02,  2.279385991567990E+08,  2.492038876892287E+08,  5.935410949742389E+07,
2460316.500000000, A.D. 2024-Jan-07 00:00:00.0000,  9.329370101767082E-02,  2.066733140236138E+08,  1.847869992796283E+00,  4.949002193805119E+01,  2.866555806182170E+02,  2.460438908647320E+06,  6.065294091314744E-06,  2.958527999247694E+02,  2.857704132796784E+02,  2.279385444388995E+08,  2.492037748541853E+08,  5.935408812501036E+07,
2460317.500000000, A.D. 2024-Jan-08 00:00:00.0000,  9.329347139998161E-02,  2.066733154697661E+08,  1.847869798831141E+00,  4.949001807954518E+01,  2.866556770070909E+02,  2.460438908814157E+06,  6.065296331650561E-06,  2.963767304041082E+02,  2.863290221422915E+02,  2.279384883098567E+08,  2.492036611499473E+08,  5.935406620141716E+07,
2460318.500000000, A.D. 2024-Jan-09 00:00:00.0000,  9.329324427514618E-02,  2.066733152875205E+08,  1.847869598883606E+00,  4.949001400748078E+01,  2.866557767528209E+02,  2.460438908985077E+06,  6.065298618656739E-06,  2.969006586456288E+02,  2.868885800042016E+02,  2.279384310115771E+08,  2.492035467356338E+08,  5.935404382113142E+07,
2460319.500000000, A.D. 2024-Jan-10 00:00:00.0000,  9.329301982929500E-02,  2.066733136385216E+08,  1.847869405334161E+00,  4.949000997569137E+01,  2.866558790675035E+02,  2.460438909159265E+06,  6.065300943349973E-06,  2.974245851810051E+02,  2.874490870514458E+02,  2.279383727691292E+08,  2.492034318997368E+08,  5.935402107206335E+07,
2460320.500000000, A.D. 2024-Jan-11 00:00:00.0000,  9.329279887551749E-02,  2.066733104347553E+08,  1.847869222320573E+00,  4.949000608240399E+01,  2.866559838633453E+02,  2.460438909336660E+06,  6.065303301446191E-06,  2.979485100953947E+02,  2.880105428164535E+02,  2.279383136898468E+08,  2.492033169449383E+08,  5.935399799613694E+07,
2460321.500000000, A.D. 2024-Jan-12 00:00:00.0000,  9.329258199087667E-02,  2.066733054639550E+08,  1.847869043315125E+00,  4.949000219990450E+01,  2.866560917958084E+02,  2.460438909518016E+06,  6.065305696499363E-06,  2.984724329661877E+02,  2.885729462039594E+02,  2.279382536846913E+08,  2.492032019054276E+08,  5.935397455857447E+07,
2460322.500000000, A.D. 2024-Jan-13 00:00:00.0000,  9.329236869820759E-02,  2.066732986020295E+08,  1.847868855784286E+00,  4.948999805522144E+01,  2.866562038249501E+02,  2.460438909704449E+06,  6.065308138760085E-06,  2.989963531158982E+02,  2.891362958477821E+02,  2.279381924968485E+08,  2.492030863916675E+08,  5.935395065906641E+07,
2460323.500000000, A.D. 2024-Jan-14 00:00:00.0000,  9.329215770802642E-02,  2.066732898770070E+08,  1.847868648655778E+00,  4.948999338602913E+01,  2.866563207282569E+02,  2.460438909896897E+06,  6.065310639933385E-06,  2.995202699480848E+02,  2.897005904409870E+02,  2.279381298330660E+08,  2.492029697891249E+08,  5.935392618307079E+07,
2460324.500000000, A.D. 2024-Jan-15 00:00:00.0000,  9.329194785155240E-02,  2.066732794084599E+08,  1.847868418141404E+00,  4.948998807816014E+01,  2.866564427692046E+02,  2.460438910095724E+06,  6.065313206483287E-06,  3.000441832229545E+02,  2.902658289287507E+02,  2.279380655313988E+08,  2.492028516543378E+08,  5.935390106733344E+07,
2460325.500000000, A.D. 2024-Jan-16 00:00:00.0000,  9.329173880846234E-02,  2.066732673871729E+08,  1.847868172180167E+00,  4.948998228757929E+01,  2.866565693566461E+02,  2.460438910300316E+06,  6.065315833225493E-06,  3.005680933304452E+02,  2.908320107259186E+02,  2.279379997217366E+08,  2.492027320563002E+08,  5.935387536258841E+07,
2460326.500000000, A.D. 2024-Jan-17 00:00:00.0000,  9.329153115786805E-02,  2.066732540534878E+08,  1.847867928517405E+00,  4.948997642246475E+01,  2.866566991264587E+02,  2.460438910509176E+06,  6.065318503769153E-06,  3.010920012299368E+02,  2.913991356520892E+02,  2.279379328147336E+08,  2.492026115759794E+08,  5.935384922923443E+07,
2460327.500000000, A.D. 2024-Jan-18 00:00:00.0000,  9.329132581763692E-02,  2.066732395484188E+08,  1.847867701557162E+00,  4.948997084294648E+01,  2.866568309610994E+02,  2.460438910721075E+06,  6.065321202696795E-06,  3.016159077245936E+02,  2.919672032110009E+02,  2.279378651966567E+08,  2.492024908448946E+08,  5.935382281814439E+07,
2460328.500000000, A.D. 2024-Jan-19 00:00:00.0000,  9.329112324803655E-02,  2.066732237632288E+08,  1.847867488026635E+00,  4.948996549158173E+01,  2.866569651721421E+02,  2.460438910936369E+06,  6.065323930176851E-06,  3.021398126342229E+02,  2.925362117762053E+02,  2.279377968632876E+08,  2.492023699633465E+08,  5.935379612767083E+07,
